GOES 18                 
1 51850U 22021A   26061.77267117  .00000080  00000+0  00000+0 0  9995
2 51850   0.0258  75.1977 0000548 314.4181 272.0750  1.00271247  5520
GOES 19                 
1 60133U 24119A   26061.85850840 -.00000265  00000+0  00000+0 0  9995
2 60133   0.0118 287.3929 0000939  86.6796  20.4147  1.00272261  5899
